{"type": "FeatureCollection", "features": [ {"type": "Feature", "properties": {"norad_id": 40315, "name": "COSMOS 2501 (702K)", "group": "gnss", "lat": 52.3420174168082, "lon": -23.60426932410663, "alt_km": 19120.634173903618, "timestamp": "2025-12-23T11:34:48.409930+00:00", "meta": {"OBJECT_NAME": "COSMOS 2501 (702K)", "OBJECT_ID": "2014-075A", "EPOCH": "2025-12-19T02:31:27.452640", "MEAN_MOTION": 2.13101513, "ECCENTRICITY": 0.0020099, "INCLINATION": 63.6146, "RA_OF_ASC_NODE": 196.6046, "ARG_OF_PERICENTER": 204.1838, "MEAN_ANOMALY": 155.7988, "EPHEMERIS_TYPE": 0, "CLASSIFICATION_TYPE": "U", "NORAD_CAT_ID": 40315, "ELEMENT_SET_NO": 999, "REV_AT_EPOCH": 8601, "BSTAR": 0, "MEAN_MOTION_DOT": 1.06e-06, "MEAN_MOTION_DDOT": 0}, "tle": {"line1": "1 40315U 14075A   25353.10517885  .00000106  00000+0  00000+0 0  9998", "line2": "2 40315  63.6146 196.6046 0020099 204.1838 155.7988  2.13101513 86014"}}, "geometry": {"type": "Point", "coordinates": [-23.60426932410663, 52.3420174168082]}}, {"type": "Feature", "properties": {"norad_id": 40534, "name": "GPS BIIF-9  (PRN 26)", "group": "gnss", "lat": -40.934122624048015, "lon": 170.96324656424548, "alt_km": 20202.544656672995, "timestamp": "2025-12-23T11:34:48.409940+00:00", "meta": {"OBJECT_NAME": "GPS BIIF-9  (PRN 26)", "OBJECT_ID": "2015-013A", "EPOCH": "2025-12-22T13:27:33.794784", "MEAN_MOTION": 2.00561992, "ECCENTRICITY": 0.01074276, "INCLINATION": 53.1964, "RA_OF_ASC_NODE": 211.4834, "ARG_OF_PERICENTER": 38.7225, "MEAN_ANOMALY": 322.126, "EPHEMERIS_TYPE": 0, "CLASSIFICATION_TYPE": "U", "NORAD_CAT_ID": 40534, "ELEMENT_SET_NO": 999, "REV_AT_EPOCH": 7828, "BSTAR": 0, "MEAN_MOTION_DOT": 7.5e-07, "MEAN_MOTION_DDOT": 0}, "tle": {"line1": "1 40534U 15013A   25356.56080781  .00000075  00000+0  00000+0 0  9992", "line2": "2 40534  53.1964 211.4834 0107427  38.7225 322.1260  2.00561992 78282"}}, "geometry": {"type": "Point", "coordinates": [170.96324656424548, -40.934122624048015]}}, {"type": "Feature", "properties": {"norad_id": 40544, "name": "GSAT0203 (GALILEO 7)", "group": "gnss", "lat": 24.51349584884361, "lon": 149.03206537748414, "alt_km": 23229.808292422098, "timestamp": "2025-12-23T11:34:48.409952+00:00", "meta": {"OBJECT_NAME": "GSAT0203 (GALILEO 7)", "OBJECT_ID": "2015-017A", "EPOCH": "2025-12-20T21:23:15.511200", "MEAN_MOTION": 1.70475982, "ECCENTRICITY": 0.00064626, "INCLINATION": 56.8444, "RA_OF_ASC_NODE": 346.4578, "ARG_OF_PERICENTER": 274.4172, "MEAN_ANOMALY": 85.5182, "EPHEMERIS_TYPE": 0, "CLASSIFICATION_TYPE": "U", "NORAD_CAT_ID": 40544, "ELEMENT_SET_NO": 999, "REV_AT_EPOCH": 6616, "BSTAR": 0, "MEAN_MOTION_DOT": -6.9e-07, "MEAN_MOTION_DDOT": 0}, "tle": {"line1": "1 40544U 15017A   25354.89115175 -.00000069  00000+0  00000+0 0  9991", "line2": "2 40544  56.8444 346.4578 0006462 274.4172  85.5182  1.70475982 66163"}}, "geometry": {"type": "Point", "coordinates": [149.03206537748414, 24.51349584884361]}}, {"type": "Feature", "properties": {"norad_id": 40545, "name": "GSAT0204 (GALILEO 8)", "group": "gnss", "lat": -5.376245379332005, "lon": -17.132801693317727, "alt_km": 23221.999798529123, "timestamp": "2025-12-23T11:34:48.409963+00:00", "meta": {"OBJECT_NAME": "GSAT0204 (GALILEO 8)", "OBJECT_ID": "2015-017B", "EPOCH": "2025-12-20T13:26:28.826304", "MEAN_MOTION": 1.70475697, "ECCENTRICITY": 0.0006133, "INCLINATION": 56.8522, "RA_OF_ASC_NODE": 346.4847, "ARG_OF_PERICENTER": 266.5447, "MEAN_ANOMALY": 93.3948, "EPHEMERIS_TYPE": 0, "CLASSIFICATION_TYPE": "U", "NORAD_CAT_ID": 40545, "ELEMENT_SET_NO": 999, "REV_AT_EPOCH": 2920, "BSTAR": 0, "MEAN_MOTION_DOT": -7e-07, "MEAN_MOTION_DDOT": 0}, "tle": {"line1": "1 40545U 15017B   25354.56005586 -.00000070  00000+0  00000+0 0  9992", "line2": "2 40545  56.8522 346.4847 0006133 266.5447  93.3948  1.70475697 29206"}}, "geometry": {"type": "Point", "coordinates": [-17.132801693317727, -5.376245379332005]}}, {"type": "Feature", "properties": {"norad_id": 40549, "name": "BEIDOU-3S IGSO-1S (C31)", "group": "gnss", "lat": 42.588088213746566, "lon": -10.888683049853773, "alt_km": 35876.36079121791, "timestamp": "2025-12-23T11:34:48.409974+00:00", "meta": {"OBJECT_NAME": "BEIDOU-3S IGSO-1S (C31)", "OBJECT_ID": "2015-019A", "EPOCH": "2025-12-18T19:55:38.829792", "MEAN_MOTION": 1.00292047, "ECCENTRICITY": 0.0036331, "INCLINATION": 49.5404, "RA_OF_ASC_NODE": 297.6395, "ARG_OF_PERICENTER": 194.0028, "MEAN_ANOMALY": 349.3621, "EPHEMERIS_TYPE": 0, "CLASSIFICATION_TYPE": "U", "NORAD_CAT_ID": 40549, "ELEMENT_SET_NO": 999, "REV_AT_EPOCH": 3926, "BSTAR": 0, "MEAN_MOTION_DOT": -1.83e-06, "MEAN_MOTION_DDOT": 0}, "tle": {"line1": "1 40549U 15019A   25352.83031053 -.00000183  00000+0  00000+0 0  9999", "line2": "2 40549  49.5404 297.6395 0036331 194.0028 349.3621  1.00292047 39264"}}, "geometry": {"type": "Point", "coordinates": [-10.888683049853773, 42.588088213746566]}}, {"type": "Feature", "properties": {"norad_id": 40730, "name": "GPS BIIF-10 (PRN 08)", "group": "gnss", "lat": -8.163650045074668, "lon": 100.27808251677197, "alt_km": 20466.499831199206, "timestamp": "2025-12-23T11:34:48.409984+00:00", "meta": {"OBJECT_NAME": "GPS BIIF-10 (PRN 08)", "OBJECT_ID": "2015-033A", "EPOCH": "2025-12-21T17:23:51.616608", "MEAN_MOTION": 2.00565211, "ECCENTRICITY": 0.01114778, "INCLINATION": 54.1229, "RA_OF_ASC_NODE": 274.4032, "ARG_OF_PERICENTER": 27.0282, "MEAN_ANOMALY": 333.5929, "EPHEMERIS_TYPE": 0, "CLASSIFICATION_TYPE": "U", "NORAD_CAT_ID": 40730, "ELEMENT_SET_NO": 999, "REV_AT_EPOCH": 7643, "BSTAR": 0, "MEAN_MOTION_DOT": -1.3e-07, "MEAN_MOTION_DDOT": 0}, "tle": {"line1": "1 40730U 15033A   25355.72490297 -.00000013  00000+0  00000+0 0  9999", "line2": "2 40730  54.1229 274.4032 0111477  27.0282 333.5929  2.00565211 76439"}}, "geometry": {"type": "Point", "coordinates": [100.27808251677197, -8.163650045074668]}}, {"type": "Feature", "properties": {"norad_id": 40748, "name": "BEIDOU-3S M2S (C58)", "group": "gnss", "lat": -5.582676867715496, "lon": 131.9939803762759, "alt_km": 21525.805237680463, "timestamp": "2025-12-23T11:34:48.409994+00:00", "meta": {"OBJECT_NAME": "BEIDOU-3S M2S (C58)", "OBJECT_ID": "2015-037A", "EPOCH": "2025-12-22T03:06:37.980000", "MEAN_MOTION": 1.86229546, "ECCENTRICITY": 0.00118585, "INCLINATION": 55.0305, "RA_OF_ASC_NODE": 308.1418, "ARG_OF_PERICENTER": 270.827, "MEAN_ANOMALY": 89.0356, "EPHEMERIS_TYPE": 0, "CLASSIFICATION_TYPE": "U", "NORAD_CAT_ID": 40748, "ELEMENT_SET_NO": 999, "REV_AT_EPOCH": 7082, "BSTAR": 0, "MEAN_MOTION_DOT": -5.8e-07, "MEAN_MOTION_DDOT": 0}, "tle": {"line1": "1 40748U 15037A   25356.12960625 -.00000058  00000+0  00000+0 0  9993", "line2": "2 40748  55.0305 308.1418 0011858 270.8270  89.0356  1.86229546 70828"}}, "geometry": {"type": "Point", "coordinates": [131.9939803762759, -5.582676867715496]}}, {"type": "Feature", "properties": {"norad_id": 40749, "name": "BEIDOU-3S M1S (C57)", "group": "gnss", "lat": 27.035275795759237, "lon": -31.030157035513554, "alt_km": 21513.52142261798, "timestamp": "2025-12-23T11:34:48.410004+00:00", "meta": {"OBJECT_NAME": "BEIDOU-3S M1S (C57)", "OBJECT_ID": "2015-037B", "EPOCH": "2025-12-22T21:29:24.264672", "MEAN_MOTION": 1.86253921, "ECCENTRICITY": 0.0003735, "INCLINATION": 55.0261, "RA_OF_ASC_NODE": 308.1047, "ARG_OF_PERICENTER": 3.0626, "MEAN_ANOMALY": 356.941, "EPHEMERIS_TYPE": 0, "CLASSIFICATION_TYPE": "U", "NORAD_CAT_ID": 40749, "ELEMENT_SET_NO": 999, "REV_AT_EPOCH": 7084, "BSTAR": 0, "MEAN_MOTION_DOT": -5.5e-07, "MEAN_MOTION_DDOT": 0}, "tle": {"line1": "1 40749U 15037B   25356.89541973 -.00000055  00000+0  00000+0 0  9996", "line2": "2 40749  55.0261 308.1047 0003735   3.0626 356.9410  1.86253921 70847"}}, "geometry": {"type": "Point", "coordinates": [-31.030157035513554, 27.035275795759237]}}, {"type": "Feature", "properties": {"norad_id": 40889, "name": "GSAT0205 (GALILEO 9)", "group": "gnss", "lat": 34.84886509824117, "lon": 17.286560381621335, "alt_km": 23218.9285524386, "timestamp": "2025-12-23T11:34:48.410015+00:00", "meta": {"OBJECT_NAME": "GSAT0205 (GALILEO 9)", "OBJECT_ID": "2015-045A", "EPOCH": "2025-12-22T02:07:17.397984", "MEAN_MOTION": 1.70473205, "ECCENTRICITY": 0.00062597, "INCLINATION": 55.0005, "RA_OF_ASC_NODE": 226.4997, "ARG_OF_PERICENTER": 42.8836, "MEAN_ANOMALY": 317.2713, "EPHEMERIS_TYPE": 0, "CLASSIFICATION_TYPE": "U", "NORAD_CAT_ID": 40889, "ELEMENT_SET_NO": 999, "REV_AT_EPOCH": 6399, "BSTAR": 0, "MEAN_MOTION_DOT": 7.3e-07, "MEAN_MOTION_DDOT": 0}, "tle": {"line1": "1 40889U 15045A   25356.08839581  .00000073  00000+0  00000+0 0  9995", "line2": "2 40889  55.0005 226.4997 0006259  42.8836 317.2713  1.70473205 63998"}}, "geometry": {"type": "Point", "coordinates": [17.286560381621335, 34.84886509824117]}}, {"type": "Feature", "properties": {"norad_id": 40890, "name": "GSAT0206 (GALILEO 10)", "group": "gnss", "lat": 0.14419876560836392, "lon": -133.42640957148896, "alt_km": 23213.37418362896, "timestamp": "2025-12-23T11:34:48.410025+00:00", "meta": {"OBJECT_NAME": "GSAT0206 (GALILEO 10)", "OBJECT_ID": "2015-045B", "EPOCH": "2025-12-21T03:15:40.639392", "MEAN_MOTION": 1.70473045, "ECCENTRICITY": 0.00044191, "INCLINATION": 54.9998, "RA_OF_ASC_NODE": 226.5212, "ARG_OF_PERICENTER": 45.8333, "MEAN_ANOMALY": 314.3117, "EPHEMERIS_TYPE": 0, "CLASSIFICATION_TYPE": "U", "NORAD_CAT_ID": 40890, "ELEMENT_SET_NO": 999, "REV_AT_EPOCH": 6400, "BSTAR": 0, "MEAN_MOTION_DOT": 7.2e-07, "MEAN_MOTION_DDOT": 0}, "tle": {"line1": "1 40890U 15045B   25355.13588703  .00000072  00000+0  00000+0 0  9998", "line2": "2 40890  54.9998 226.5212 0004419  45.8333 314.3117  1.70473045 64002"}}, "geometry": {"type": "Point", "coordinates": [-133.42640957148896, 0.14419876560836392]}}]}